PERSEUS-M1              
1 40039U 14033AF  26140.60520355  .00001056  00000+0  10062-3 0  9999
2 40039  97.9635  84.2891 0012593  35.6412 324.5647 14.95529052646515
POLYITAN-1              
1 40042U 14033AJ  26140.95931233  .00012271  00000+0  39704-3 0  9997
2 40042  98.0962 164.6661 0005854 230.7351 129.3369 15.32209079649425
TIGRISAT                
1 40043U 14033AK  26140.96290013  .00001379  00000+0  16441-3 0  9993
2 40043  97.7801 291.6064 0049919 162.4568 197.8386 14.85029761641586
AEROCUBE 6A             
1 40045U 14033AM  26140.96968980  .00003362  00000+0  28689-3 0  9991
2 40045  97.7226 308.2191 0039987 106.0681 254.4950 14.97770858642546
AEROCUBE 6B             
1 40046U 14033AN  26140.93161166  .00004418  00000+0  36206-3 0  9997
2 40046  97.7183 307.9135 0038738  99.4105 261.1501 14.99195415642675
CANX-4                  
1 40055U 14034C   26140.45563964  .00000552  00000+0  78132-4 0  9997
2 40055  98.3156  14.7467 0014121  99.2570 261.0239 14.81206483640424
CANX-5                  
1 40056U 14034D   26140.38684056  .00000558  00000+0  78984-4 0  9997
2 40056  98.3159  14.7172 0014116  99.6483 260.6324 14.81223481631227
UKUBE-1                 
1 40074U 14037F   26140.72793000  .00005391  00000+0  30930-3 0  9996
2 40074  98.4246 141.1270 0000574 136.9114 223.2159 15.13054628644404
BRITE-PL2 (HEWELIUSZ)   
1 40119U 14049B   26140.92301880  .00001591  00000+0  15276-3 0  9996
2 40119  97.9070 252.7197 0013749 194.2731 165.8102 14.94476765637375
AEROCUBE 5C             
1 40965U 15058B   26140.94592921  .00002068  00000+0  19150-3 0  9991
2 40965  64.7680 347.3266 0129970  73.9857 287.5525 14.91282987361594
AEROCUBE 7              
1 40966U 15058C   26140.81895860  .00002892  00000+0  23987-3 0  9994
2 40966  64.7630 330.5249 0119730  72.6870 288.7301 14.95493189361866
FOX-1A (AO-85)          
1 40967U 15058D   26140.91754257  .00002131  00000+0  19972-3 0  9995
2 40967  64.7762   3.7192 0129279  67.2984 294.1734 14.90792081109504
SINOD-D 1               
1 40968U 15058E   26140.59958438  .00002883  00000+0  23905-3 0  9992
2 40968  64.7759 345.2919 0117782  64.1616 297.1590 14.95670429112532
SNAP-3 ALICE            
1 40970U 15058G   26140.55375561  .00056980  00000+0  84467-3 0  9998
2 40970  64.7513 198.9973 0033351  26.1120 334.1696 15.54251907112589
LMRST-SAT               
1 40971U 15058H   26140.59755927  .00002102  00000+0  19832-3 0  9992
2 40971  64.7768   0.9993 0131025  69.4420 292.0693 14.90416368109449
SNAP-3 EDDIE            
1 40972U 15058J   26140.50066544  .00056747  00000+0  80605-3 0  9994
2 40972  64.7431 190.1032 0033676  29.9318 330.3742 15.55397410114718
PROPCUBE 3              
1 40973U 15058K   26140.56671417  .00002468  00000+0  21315-3 0  9996
2 40973  64.7691 338.8200 0123137  70.9347 290.5055 14.94051580110677
BISONSAT                
1 40974U 15058L   26140.58877028  .00007577  00000+0  37746-3 0  9996
2 40974  64.7601 262.8261 0078505  58.9224 301.9574 15.15581765111435
SNAP-3 JIMI             
1 40975U 15058M   26140.89341470  .00004082  00000+0  28838-3 0  9998
2 40975  64.7655 306.1084 0105159  66.7043 294.5100 15.01994577110123
PROPCUBE 1 (FLORA)      
1 40976U 15058N   26140.93007679  .00001992  00000+0  19608-3 0  9996
2 40976  64.7759  19.7031 0129827  71.5972 289.9205 14.89048740112203
SINOD-D 3               
1 40977U 15058P   26140.86149066  .00002814  00000+0  24533-3 0  9993
2 40977  64.7734   1.1353 0118303  69.0656 292.3072 14.93785161110676
HORYU-4                 
1 41340U 16012D   26140.51525049  .00148657  00000+0  74679-3 0  9992
2 41340  30.9886 279.6091 0004177  88.1764 271.9372 15.80155358566419
RAVAN                   
1 41849U 16067B   26140.92229110  .00031413  00000+0  52358-3 0  9992
2 41849  97.9922  27.4017 0007125  98.9965 261.2092 15.51921779523467
CELTEE 1                
1 41850U 16067C   26140.15450490  .00003565  00000+0  17225-3 0  9997
2 41850  98.0704   4.8110 0001439  56.1866 303.9504 15.19373973521629
OPTICUBE 04             
1 41851U 16067D   26140.37232622  .00001244  00000+0  81897-4 0  9996
2 41851  98.0725 351.2035 0014944 207.3108 152.7335 15.09526913520974
AEROCUBE 8D             
1 41852U 16067E   26140.38549334  .00005297  00000+0  22231-3 0  9997
2 41852  98.0712   8.4460 0002441 207.2452 152.8655 15.23962793521832
AEROCUBE 8C             
1 41853U 16067F   26140.61187816  .00005104  00000+0  21271-3 0  9997
2 41853  98.0584   5.9531 0006150 143.5396 216.6259 15.24205260521863
CORVUS BC2              
1 42846U 17042X   26140.95678482  .00001540  00000+0  10928-3 0  9992
2 42846  97.4041 303.3738 0012623 198.5198 161.5572 15.06095063482964
CORVUS BC1              
1 42847U 17042Y   26140.95449091  .00001710  00000+0  12041-3 0  9992
2 42847  97.4072 304.1677 0012088 174.6291 185.5068 15.06265681482998
MAKERSAT 0              
1 43016U 17073D   26140.21583068  .00019291  00000+0  53752-3 0  9994
2 43016  97.4657  22.5369 0110314  13.6755 346.7432 15.30827686462184
